{
  "type": "FeatureCollection",
  "features": [
    {
      "type": "Feature",
      "properties": {
        "norad_id": 63772,
        "name": "BIOMASS",
        "group": "resource",
        "lat": 19.9145621616939,
        "lon": 168.5534375159728,
        "alt_km": 668.1611218070584,
        "timestamp": "2025-12-12T11:38:31.074232+00:00",
        "meta_object_name": "BIOMASS",
        "meta_object_id": "2025-090A",
        "meta_epoch": "2025-12-12T01:43:56.440992",
        "meta_mean_motion": 14.67539354,
        "meta_eccentricity": 0.000203,
        "meta_inclination": 98.0685,
        "meta_ra_of_asc_node": 171.0926,
        "meta_arg_of_pericenter": 74.7557,
        "meta_mean_anomaly": 285.3872,
        "meta_ephemeris_type": 0,
        "meta_classification_type": "U",
        "meta_norad_cat_id": 63772,
        "meta_element_set_no": 999,
        "meta_rev_at_epoch": 3324,
        "meta_bstar": 0.00036991,
        "meta_mean_motion_dot": 2.05e-05,
        "meta_mean_motion_ddot": 0,
        "tle_line1": "1 63772U 25090A   25346.07218103  .00002050  00000+0  36991-3 0  9990",
        "tle_line2": "2 63772  98.0685 171.0926 0002030  74.7557 285.3872 14.67539354 33243"
      },
      "geometry": {
        "type": "Point",
        "coordinates": [
          168.5534375159728,
          19.9145621616939
        ]
      }
    },
    {
      "type": "Feature",
      "properties": {
        "norad_id": 64694,
        "name": "GOSAT-GW (IBUKI GW)",
        "group": "resource",
        "lat": -49.18918561974811,
        "lon": 92.57896308263672,
        "alt_km": 676.5507081739688,
        "timestamp": "2025-12-12T11:38:31.074242+00:00",
        "meta_object_name": "GOSAT-GW (IBUKI GW)",
        "meta_object_id": "2025-141A",
        "meta_epoch": "2025-12-12T04:03:10.145088",
        "meta_mean_motion": 14.67556132,
        "meta_eccentricity": 0.0001418,
        "meta_inclination": 98.0423,
        "meta_ra_of_asc_node": 281.6924,
        "meta_arg_of_pericenter": 88.0571,
        "meta_mean_anomaly": 272.0796,
        "meta_ephemeris_type": 0,
        "meta_classification_type": "U",
        "meta_norad_cat_id": 64694,
        "meta_element_set_no": 999,
        "meta_rev_at_epoch": 2441,
        "meta_bstar": 0.00024202,
        "meta_mean_motion_dot": 1.325e-05,
        "meta_mean_motion_ddot": 0,
        "tle_line1": "1 64694U 25141A   25346.16886742  .00001325  00000+0  24202-3 0  9997",
        "tle_line2": "2 64694  98.0423 281.6924 0001418  88.0571 272.0796 14.67556132 24416"
      },
      "geometry": {
        "type": "Point",
        "coordinates": [
          92.57896308263672,
          -49.18918561974811
        ]
      }
    },
    {
      "type": "Feature",
      "properties": {
        "norad_id": 64876,
        "name": "IONOSFERA-M 3",
        "group": "resource",
        "lat": -80.35710586533315,
        "lon": 11.027746817697231,
        "alt_km": 829.1481081716202,
        "timestamp": "2025-12-12T11:38:31.074253+00:00",
        "meta_object_name": "IONOSFERA-M 3",
        "meta_object_id": "2025-155A",
        "meta_epoch": "2025-12-12T03:35:50.038944",
        "meta_mean_motion": 14.21440793,
        "meta_eccentricity": 0.0002245,
        "meta_inclination": 98.5781,
        "meta_ra_of_asc_node": 308.0327,
        "meta_arg_of_pericenter": 60.9649,
        "meta_mean_anomaly": 299.1753,
        "meta_ephemeris_type": 0,
        "meta_classification_type": "U",
        "meta_norad_cat_id": 64876,
        "meta_element_set_no": 999,
        "meta_rev_at_epoch": 1983,
        "meta_bstar": 9.0668e-05,
        "meta_mean_motion_dot": 1.56e-06,
        "meta_mean_motion_ddot": 0,
        "tle_line1": "1 64876U 25155A   25346.14988471  .00000156  00000+0  90668-4 0  9995",
        "tle_line2": "2 64876  98.5781 308.0327 0002245  60.9649 299.1753 14.21440793 19833"
      },
      "geometry": {
        "type": "Point",
        "coordinates": [
          11.027746817697231,
          -80.35710586533315
        ]
      }
    },
    {
      "type": "Feature",
      "properties": {
        "norad_id": 64877,
        "name": "IONOSFERA-M 4",
        "group": "resource",
        "lat": 80.02067401828891,
        "lon": -172.64727222677695,
        "alt_km": 812.0944071594804,
        "timestamp": "2025-12-12T11:38:31.074263+00:00",
        "meta_object_name": "IONOSFERA-M 4",
        "meta_object_id": "2025-155B",
        "meta_epoch": "2025-12-12T04:26:19.783680",
        "meta_mean_motion": 14.21441913,
        "meta_eccentricity": 0.0001596,
        "meta_inclination": 98.5781,
        "meta_ra_of_asc_node": 307.9863,
        "meta_arg_of_pericenter": 64.0586,
        "meta_mean_anomaly": 296.0756,
        "meta_ephemeris_type": 0,
        "meta_classification_type": "U",
        "meta_norad_cat_id": 64877,
        "meta_element_set_no": 999,
        "meta_rev_at_epoch": 1983,
        "meta_bstar": 8.9169e-05,
        "meta_mean_motion_dot": 1.52e-06,
        "meta_mean_motion_ddot": 0,
        "tle_line1": "1 64877U 25155B   25346.18495120  .00000152  00000+0  89169-4 0  9994",
        "tle_line2": "2 64877  98.5781 307.9863 0001596  64.0586 296.0756 14.21441913 19834"
      },
      "geometry": {
        "type": "Point",
        "coordinates": [
          -172.64727222677695,
          80.02067401828891
        ]
      }
    },
    {
      "type": "Feature",
      "properties": {
        "norad_id": 64899,
        "name": "MICROCARB",
        "group": "resource",
        "lat": -23.369320115191258,
        "lon": -121.6504430903971,
        "alt_km": 653.6090220037077,
        "timestamp": "2025-12-12T11:38:31.074273+00:00",
        "meta_object_name": "MICROCARB",
        "meta_object_id": "2025-156A",
        "meta_epoch": "2025-12-12T04:11:46.216608",
        "meta_mean_motion": 14.7205564,
        "meta_eccentricity": 0.0017105,
        "meta_inclination": 98.0026,
        "meta_ra_of_asc_node": 61.5294,
        "meta_arg_of_pericenter": 146.4613,
        "meta_mean_anomaly": 213.7681,
        "meta_ephemeris_type": 0,
        "meta_classification_type": "U",
        "meta_norad_cat_id": 64899,
        "meta_element_set_no": 999,
        "meta_rev_at_epoch": 2045,
        "meta_bstar": 0.00019044,
        "meta_mean_motion_dot": 1.15e-05,
        "meta_mean_motion_ddot": 0,
        "tle_line1": "1 64899U 25156A   25346.17484047  .00001150  00000+0  19044-3 0  9997",
        "tle_line2": "2 64899  98.0026  61.5294 0017105 146.4613 213.7681 14.72055640 20452"
      },
      "geometry": {
        "type": "Point",
        "coordinates": [
          -121.6504430903971,
          -23.369320115191258
        ]
      }
    },
    {
      "type": "Feature",
      "properties": {
        "norad_id": 64900,
        "name": "CO3D 3",
        "group": "resource",
        "lat": -20.745554064553026,
        "lon": -119.97997487114074,
        "alt_km": 507.03778009711095,
        "timestamp": "2025-12-12T11:38:31.074285+00:00",
        "meta_object_name": "CO3D 3",
        "meta_object_id": "2025-156B",
        "meta_epoch": "2025-12-12T04:26:31.993728",
        "meta_mean_motion": 15.20160723,
        "meta_eccentricity": 0.0005472,
        "meta_inclination": 97.4437,
        "meta_ra_of_asc_node": 62.5626,
        "meta_arg_of_pericenter": 185.32,
        "meta_mean_anomaly": 174.7978,
        "meta_ephemeris_type": 0,
        "meta_classification_type": "U",
        "meta_norad_cat_id": 64900,
        "meta_element_set_no": 999,
        "meta_rev_at_epoch": 2112,
        "meta_bstar": 0.001105,
        "meta_mean_motion_dot": 0.0002391,
        "meta_mean_motion_ddot": 0,
        "tle_line1": "1 64900U 25156B   25346.18509252  .00023910  00000+0  11050-2 0  9993",
        "tle_line2": "2 64900  97.4437  62.5626 0005472 185.3200 174.7978 15.20160723 21125"
      },
      "geometry": {
        "type": "Point",
        "coordinates": [
          -119.97997487114074,
          -20.745554064553026
        ]
      }
    },
    {
      "type": "Feature",
      "properties": {
        "norad_id": 64901,
        "name": "CO3D 4",
        "group": "resource",
        "lat": -19.871152353489535,
        "lon": -119.84926273323971,
        "alt_km": 509.70126479386727,
        "timestamp": "2025-12-12T11:38:31.074295+00:00",
        "meta_object_name": "CO3D 4",
        "meta_object_id": "2025-156C",
        "meta_epoch": "2025-12-09T21:09:17.831232",
        "meta_mean_motion": 15.20201124,
        "meta_eccentricity": 0.0001172,
        "meta_inclination": 97.4339,
        "meta_ra_of_asc_node": 60.2895,
        "meta_arg_of_pericenter": 212.2858,
        "meta_mean_anomaly": 147.8306,
        "meta_ephemeris_type": 0,
        "meta_classification_type": "U",
        "meta_norad_cat_id": 64901,
        "meta_element_set_no": 999,
        "meta_rev_at_epoch": 2077,
        "meta_bstar": -2.5806744e-05,
        "meta_mean_motion_dot": -6.26e-06,
        "meta_mean_motion_ddot": 0,
        "tle_line1": "1 64901U 25156C   25343.88145638 -.00000626  00000+0 -25807-4 0  9990",
        "tle_line2": "2 64901  97.4339  60.2895 0001172 212.2858 147.8306 15.20201124 20779"
      },
      "geometry": {
        "type": "Point",
        "coordinates": [
          -119.84926273323971,
          -19.871152353489535
        ]
      }
    }
  ]
}